SENTINEL-6              
1 46984U 20086A   24249.80600274 -.00000061  00000+0 -15548-5 0  9991
2 46984  66.0427  43.8227 0007774 269.4021  90.6103 12.80931364177273
